{
    "links": {
        "self": "http://www.neowsapp.com/rest/v1/neo/3740954?api_key=iIulBulltgU6a56xZRHN4H3l9WmuAYTsLGpBGhQ2"
    },
    "id": "3740954",
    "neo_reference_id": "3740954",
    "name": "(2016 BQ15)",
    "designation": "2016 BQ15",
    "nasa_jpl_url": "http://ssd.jpl.nasa.gov/sbdb.cgi?sstr=3740954",
    "absolute_magnitude_h": 25.1,
    "estimated_diameter": {
        "kilometers": {
            "estimated_diameter_min": 0.0253837029,
            "estimated_diameter_max": 0.0567596853
        },
        "meters": {
            "estimated_diameter_min": 25.3837029364,
            "estimated_diameter_max": 56.7596852866
        },
        "miles": {
            "estimated_diameter_min": 0.0157726969,
            "estimated_diameter_max": 0.0352688224
        },
        "feet": {
            "estimated_diameter_min": 83.279867942,
            "estimated_diameter_max": 186.2194458756
        }
    },
    "is_potentially_hazardous_asteroid": false,
    "close_approach_data": [
        {
            "close_approach_date": "2013-01-28",
            "close_approach_date_full": "2013-Jan-28 19:22",
            "epoch_date_close_approach": 1359400920000,
            "relative_velocity": {
                "kilometers_per_second": "26.6474448126",
                "kilometers_per_hour": "95930.8013254504",
                "miles_per_hour": "59607.6693013611"
            },
            "miss_distance": {
                "astronomical": "0.2150449349",
                "lunar": "83.6524796761",
                "kilometers": "32170264.215328663",
                "miles": "19989675.2498470294"
            },
            "orbiting_body": "Earth"
        },
        {
            "close_approach_date": "2016-02-08",
            "close_approach_date_full": "2016-Feb-08 19:50",
            "epoch_date_close_approach": 1454961000000,
            "relative_velocity": {
                "kilometers_per_second": "20.8187897929",
                "kilometers_per_hour": "74947.6432543777",
                "miles_per_hour": "46569.5508876993"
            },
            "miss_distance": {
                "astronomical": "0.0218941214",
                "lunar": "8.5168132246",
                "kilometers": "3275313.926961418",
                "miles": "2035185.7013988484"
            },
            "orbiting_body": "Earth"
        },
        {
            "close_approach_date": "2043-07-25",
            "close_approach_date_full": "2043-Jul-25 09:37",
            "epoch_date_close_approach": 2321429820000,
            "relative_velocity": {
                "kilometers_per_second": "17.2096937105",
                "kilometers_per_hour": "61954.8973579613",
                "miles_per_hour": "38496.3638611177"
            },
            "miss_distance": {
                "astronomical": "0.1026149558",
                "lunar": "39.9172178062",
                "kilometers": "15350978.817824146",
                "miles": "9538655.9240433748"
            },
            "orbiting_body": "Earth"
        },
        {
            "close_approach_date": "2046-08-01",
            "close_approach_date_full": "2046-Aug-01 13:29",
            "epoch_date_close_approach": 2416742940000,
            "relative_velocity": {
                "kilometers_per_second": "20.6189261182",
                "kilometers_per_hour": "74228.1340254595",
                "miles_per_hour": "46122.475833764"
            },
            "miss_distance": {
                "astronomical": "0.0067736318",
                "lunar": "2.6349427702",
                "kilometers": "1013320.889444266",
                "miles": "629648.4035162308"
            },
            "orbiting_body": "Moon"
        },
        {
            "close_approach_date": "2046-08-01",
            "close_approach_date_full": "2046-Aug-01 17:42",
            "epoch_date_close_approach": 2416758120000,
            "relative_velocity": {
                "kilometers_per_second": "20.3713931986",
                "kilometers_per_hour": "73337.015514919",
                "miles_per_hour": "45568.7694459228"
            },
            "miss_distance": {
                "astronomical": "0.0061650037",
                "lunar": "2.3981864393",
                "kilometers": "922271.422062119",
                "miles": "573072.8879264822"
            },
            "orbiting_body": "Earth"
        }
    ],
    "orbital_data": {
        "orbit_id": "8",
        "orbit_determination_date": "2017-04-06 08:28:51",
        "first_observation_date": "2016-01-30",
        "last_observation_date": "2016-02-07",
        "data_arc_in_days": 8,
        "observations_used": 68,
        "orbit_uncertainty": "7",
        "minimum_orbit_intersection": ".0015526",
        "jupiter_tisserand_invariant": "3.398",
        "epoch_osculation": "2459000.5",
        "eccentricity": ".6963401576898782",
        "semi_major_axis": "2.090901285665452",
        "inclination": ".9329628238496412",
        "ascending_node_longitude": "135.1538959832327",
        "orbital_period": "1104.329621322563",
        "perihelion_distance": ".6349227546912021",
        "perihelion_argument": "87.91481358875832",
        "aphelion_distance": "3.546879816639703",
        "perihelion_time": "2458576.797259265854",
        "mean_anomaly": "138.1226978966813",
        "mean_motion": ".3259896257866001",
        "equinox": "J2000",
        "orbit_class": {
            "orbit_class_type": "APO",
            "orbit_class_description": "Near-Earth asteroid orbits which cross the Earth’s orbit similar to that of 1862 Apollo",
            "orbit_class_range": "a (semi-major axis) > 1.0 AU; q (perihelion) < 1.017 AU"
        }
    },
    "is_sentry_object": false
}